GPS BIIR-2  (PRN 13)    
1 24876U 97035A   23149.37639595  .00000101  00000+0  00000+0 0  9997
2 24876  55.5699 142.1701 0068013  50.7772 309.8381  2.00564154189591
GPS BIIR-4  (PRN 20)    
1 26360U 00025A   23149.50670757 -.00000059  00000+0  00000+0 0  9993
2 26360  54.3490  64.6154 0041177 198.1380 341.8613  2.00577916168918
GPS BIIR-8  (PRN 16)    
1 27663U 03005A   23149.35050900 -.00000034  00000+0  00000+0 0  9999
2 27663  55.2965 259.3103 0131614  44.5119   4.3808  2.00571707148950
GPS BIIR-9  (PRN 21)    
1 27704U 03010A   23149.24684594 -.00000083  00000+0  00000+0 0  9995
2 27704  55.1067   9.3272 0248634 316.3469 234.9552  2.00570526147748
GPS BIIR-11 (PRN 19)    
1 28190U 04009A   23149.56476113 -.00000054  00000+0  00000+0 0  9993
2 28190  55.7683 320.3484 0092588 133.2717 227.1745  2.00569826140580
GPS BIIR-13 (PRN 02)    
1 28474U 04045A   23149.21378708 -.00000083  00000+0  00000+0 0  9993
2 28474  55.4324   9.6141 0175411 286.4280 259.3599  1.99885037136068
GPS BIIRM-1 (PRN 17)    
1 28874U 05038A   23149.52146041 -.00000053  00000+0  00000+0 0  9994
2 28874  55.8222 317.7986 0136986 279.2381  71.9669  2.00552708129471
GPS BIIRM-2 (PRN 31)    
1 29486U 06042A   23149.18380583  .00000065  00000+0  00000+0 0  9995
2 29486  54.6868 195.5472 0104478  29.3423 338.4095  2.00499758122032
GPS BIIRM-3 (PRN 12)    
1 29601U 06052A   23149.09490551 -.00000034  00000+0  00000+0 0  9999
2 29601  55.3145 258.2744 0085735  78.4453 282.5283  2.00572282121040
GPS BIIRM-4 (PRN 15)    
1 32260U 07047A   23149.40023963  .00000074  00000+0  00000+0 0  9996
2 32260  53.4295 126.2007 0147133  68.3607 293.1907  2.00556908114451
GPS BIIRM-5 (PRN 29)    
1 32384U 07062A   23149.11859747 -.00000053  00000+0  00000+0 0  9993
2 32384  55.9518 318.6216 0024020 141.6290 145.3123  2.00553541113147
GPS BIIRM-6 (PRN 07)    
1 32711U 08012A   23149.31528798  .00000069  00000+0  00000+0 0  9990
2 32711  54.4530 194.3958 0175143 234.7668 123.6574  2.00554902111393
GPS BIIRM-8 (PRN 05)    
1 35752U 09043A   23149.48678628 -.00000046  00000+0  00000+0 0  9995
2 35752  55.3515  71.6322 0057528  65.0633  74.3537  2.00563754101002
GPS BIIF-1  (PRN 25)    
1 36585U 10022A   23149.11182528 -.00000031  00000+0  00000+0 0  9992
2 36585  54.6092 253.5563 0108984  59.6464 285.6259  2.00556914 95225
GPS BIIF-2  (PRN 01)    
1 37753U 11036A   23147.26307617 -.00000093  00000+0  00000+0 0  9996
2 37753  56.7222  15.3450 0126651  54.7677 119.4530  2.00567844 86874
GPS BIIF-3  (PRN 24)    
1 38833U 12053A   23148.99932386  .00000072  00000+0  00000+0 0  9990
2 38833  53.5128 189.2115 0137007  50.6181 310.6626  2.00565790 77076
GPS BIIF-4  (PRN 27)    
1 39166U 13023A   23148.85935815 -.00000053  00000+0  00000+0 0  9993
2 39166  55.4396 314.0604 0114272  41.3934 319.4643  2.00564704 73512
GPS BIIF-5  (PRN 30)    
1 39533U 14008A   23149.35628726  .00000068  00000+0  00000+0 0  9996
2 39533  53.6009 194.7424 0066305 213.7202 145.9327  2.00572950 67325
GPS BIIF-6  (PRN 06)    
1 39741U 14026A   23149.63576399 -.00000081  00000+0  00000+0 0  9992
2 39741  56.6777  14.7759 0029251 314.1179  45.6929  2.00564377 66182
GPS BIIF-7  (PRN 09)    
1 40105U 14045A   23149.22874240  .00000087  00000+0  00000+0 0  9995
2 40105  54.7849 132.9919 0021524 113.8992 246.3265  2.00571039 63712
GPS BIIF-8  (PRN 03)    
1 40294U 14068A   23149.10382556 -.00000040  00000+0  00000+0 0  9990
2 40294  56.0946  74.3170 0046608  57.4426 303.0007  2.00565171 62845
GPS BIIF-9  (PRN 26)    
1 40534U 15013A   23149.23583840 -.00000027  00000+0  00000+0 0  9996
2 40534  53.5077 250.3594 0078056  25.1399 335.2618  2.00560626 59467
GPS BIIF-10 (PRN 08)    
1 40730U 15033A   23149.39664852 -.00000054  00000+0  00000+0 0  9996
2 40730  54.9295 312.7006 0084173  13.8869 346.3381  2.00560470 57630
GPS BIIF-11 (PRN 10)    
1 41019U 15062A   23148.95258420 -.00000040  00000+0  00000+0 0  9995
2 41019  56.0792  74.1713 0086549 221.9255 137.4054  2.00562351 55465
GPS BIIF-12 (PRN 32)    
1 41328U 16007A   23149.04166466  .00000088  00000+0  00000+0 0  9998
2 41328  54.9922 133.7541 0071141 234.8835 124.4488  2.00554681 53473
GPS BIII-1  (PRN 04)    
1 43873U 18109A   23149.43655882  .00000093  00000+0  00000+0 0  9994
2 43873  55.1689 136.2326 0024304 194.8590 341.5338  2.00564377 32717
GPS BIII-2  (PRN 18)    
1 44506U 19056A   23149.61450520 -.00000082  00000+0  00000+0 0  9991
2 44506  55.7995  15.3093 0032383 183.0249  22.6811  2.00564365 27716
GPS BIII-3  (PRN 23)    
1 45854U 20041A   23149.11688525 -.00000044  00000+0  00000+0 0  9995
2 45854  55.8003  72.6063 0031993 186.7780 322.8598  2.00565748 21675
GPS BIII-4  (PRN 14)    
1 46826U 20078A   23149.57969021 -.00000031  00000+0  00000+0 0  9994
2 46826  54.3603 256.0384 0032168 191.2337 268.1746  2.00562932 19152
GPS BIII-5  (PRN 11)    
1 48859U 21054A   23149.50996796 -.00000085  00000+0  00000+0 0  9998
2 48859  55.3141  17.1458 0009316 209.2050  20.7678  2.00555107 14390
GPS BIII-6  (PRN 28)    
1 55268U 23009A   23148.63932344  .00000064  00000+0  00000+0 0  9990
2 55268  55.0920 192.2844 0004595 101.7417 263.9112  2.00562210  2872
